NORAD_CAT_ID,OBJECT_NAME,OBJECT_TYPE,EPOCH,MEAN_MOTION,ECCENTRICITY,INCLINATION,RA_OF_ASC_NODE,ARG_OF_PERICENTER,MEAN_ANOMALY,BSTAR,MEAN_MOTION_DOT,MEAN_MOTION_DDOT,TLE_LINE0,TLE_LINE1,TLE_LINE2,SEMIMAJOR_AXIS,PERIOD,APOGEE,PERIGEE,DECAYED
53017.0,STARLINK-4281,PAYLOAD,2022-11-02 14:00:01,15.0883692,0.00015,53.2153,174.8567,65.0891,61.8292,0.0014233,0.00022434,0.0,0 STARLINK-4281,1 53017U 22076AH  22306.58334491  .00022434  00000-0  14233-2 0  9993,2 53017  53.2153 174.8567 0001500  65.0891  61.8292 15.08836920  1304,6917.89,95.438,540.7919999999998,538.717,0.0
53017.0,STARLINK-4281,PAYLOAD,2022-11-02 21:23:21,15.0883649,0.0001628,53.2174,173.4773,57.3083,302.8066,3.2512e-05,2.29e-06,0.0,0 STARLINK-4281,1 53017U 22076AH  22306.89121733  .00000229  00000-0  32512-4 0  9990,2 53017  53.2174 173.4773 0001628  57.3083 302.8066 15.08836490 18395,6917.891,95.438,540.882,538.63,0.0
53017.0,STARLINK-4281,PAYLOAD,2022-11-03 02:09:30,15.08841562,0.0001674,53.2173,172.5853,57.7758,302.3396,4.9048e-05,4.93e-06,0.0,0 STARLINK-4281,1 53017U 22076AH  22307.08993231  .00000493  00000-0  49048-4 0  9997,2 53017  53.2173 172.5853 0001674  57.7758 302.3396 15.08841562 18888,6917.876,95.437,540.899,538.5830000000002,0.0
53017.0,STARLINK-4281,PAYLOAD,2022-11-03 18:03:20,15.0884855,0.0001339,53.2185,169.6105,63.1203,296.9926,0.00010458,1.377e-05,0.0,0 STARLINK-4281,1 53017U 22076AH  22307.75232496  .00001377  00000-0  10458-3 0  9994,2 53017  53.2185 169.6105 0001339  63.1203 296.9926 15.08848550 18524,6917.854,95.437,540.646,538.793,0.0
53017.0,STARLINK-4281,PAYLOAD,2022-11-04 02:00:16,15.08851665,0.0001475,53.2175,168.1235,61.037,299.077,0.0001373,1.899e-05,0.0,0 STARLINK-4281,1 53017U 22076AH  22308.08352156  .00001899  00000-0  13730-3 0  9992,2 53017  53.2175 168.1235 0001475  61.0370 299.0770 15.08851665 19033,6917.845,95.437,540.73,538.689,0.0
53017.0,STARLINK-4281,PAYLOAD,2022-11-04 08:21:48,15.08850284,0.000148,53.2173,166.9346,61.7494,298.3648,0.00013925,1.929e-05,0.0,0 STARLINK-4281,1 53017U 22076AH  22308.34848134  .00001929  00000-0  13925-3 0  9997,2 53017  53.2173 166.9346 0001480  61.7494 298.3648 15.08850284 18615,6917.849,95.437,540.738,538.69,0.0
53017.0,STARLINK-4281,PAYLOAD,2022-11-04 17:54:08,15.08839107,0.0001303,53.2189,165.1496,56.231,303.8806,-1.2394e-05,-4.85e-06,0.0,0 STARLINK-4281,1 53017U 22076AH  22308.74593113 -.00000485  00000-0 -12394-4 0  9993,2 53017  53.2189 165.1496 0001303  56.2310 303.8806 15.08839107 19136,6917.8830000000025,95.438,540.65,538.847,0.0
53017.0,STARLINK-4281,PAYLOAD,2022-11-04 21:04:54,15.08838619,0.0001675,53.2154,164.55700000000004,61.5926,298.5234,-1.629e-05,-5.47e-06,0.0,0 STARLINK-4281,1 53017U 22076AH  22308.87841244 -.00000547  00000-0 -16290-4 0  9996,2 53017  53.2154 164.5570 0001675  61.5926 298.5234 15.08838619 18690,6917.885,95.438,540.908,538.591,0.0
53017.0,STARLINK-4281,PAYLOAD,2022-11-05 01:51:04,15.08831377,0.0001667,53.2154,163.6651,60.0638,300.0519,3.7172e-06,-2.29e-06,0.0,0 STARLINK-4281,1 53017U 22076AH  22309.07713619 -.00000229  00000-0  37172-5 0  9992,2 53017  53.2154 163.6651 0001667  60.0638 300.0519 15.08831377 18728,6917.906999999997,95.438,540.925,538.619,0.0
53017.0,STARLINK-4281,PAYLOAD,2022-11-05 16:09:31,15.08911957,0.0001247,53.2165,160.9867,56.058,304.0531,-0.0009573,-0.00015521,0.0,0 STARLINK-4281,1 53017U 22076AH  22309.67328378 -.00015521  00000-0 -95730-3 0  9996,2 53017  53.2165 160.9867 0001247  56.0580 304.0531 15.08911957 19276,6917.66,95.433,540.388,538.663,0.0
53017.0,STARLINK-4281,PAYLOAD,2022-11-05 20:55:41,15.08842301,0.0001949,53.2151,160.0957,58.7611,301.3572,1.4335e-05,-6e-07,0.0,0 STARLINK-4281,1 53017U 22076AH  22309.87200874 -.00000060  00000-0  14335-4 0  9992,2 53017  53.2151 160.0957 0001949  58.7611 301.3572 15.08842301 18848,6917.873000000001,95.437,541.087,538.39,0.0
53017.0,STARLINK-4281,PAYLOAD,2022-11-06 01:41:50,15.08842257,0.0001818,53.216,159.2043,53.3731,306.7428,3.2282e-07,-2.83e-06,0.0,0 STARLINK-4281,1 53017U 22076AH  22310.07072901 -.00000283  00000-0  32282-6 0  9994,2 53017  53.2160 159.2043 0001818  53.3731 306.7428 15.08842257 19337,6917.873000000001,95.437,540.996,538.481,0.0
53017.0,STARLINK-4281,PAYLOAD,2022-11-06 19:11:06,15.08831972,0.0001713,53.2165,155.9323,57.1753,302.9403,6.1429e-05,6.900000000000003e-06,0.0,0 STARLINK-4281,1 53017U 22076AH  22310.79937540  .00000690  00000-0  61429-4 0  9996,2 53017  53.2165 155.9323 0001713  57.1753 302.9403 15.08831972 19441,6917.905,95.438,540.955,538.585,0.0
53017.0,STARLINK-4281,PAYLOAD,2022-11-07 15:51:07,15.08834558,0.0001778,53.2165,152.0662,57.8688,302.2477,-2.4437e-05,-6.77e-06,0.0,0 STARLINK-4281,1 53017U 22076AH  22311.66049905 -.00000677  00000-0 -24437-4 0  9997,2 53017  53.2165 152.0662 0001778  57.8688 302.2477 15.08834558 19111,6917.897,95.438,540.992,538.5319999999998,0.0
53017.0,STARLINK-4281,PAYLOAD,2022-11-07 23:48:02,15.08837105,0.0002013,53.2161,150.5795,64.8508,295.2693,-1.0547e-05,-4.56e-06,0.0,0 STARLINK-4281,1 53017U 22076AH  22311.99169946 -.00000456  00000-0 -10547-4 0  9993,2 53017  53.2161 150.5795 0002013  64.8508 295.2693 15.08837105 19627,6917.889,95.438,541.1469999999998,538.362,0.0
53017.0,STARLINK-4281,PAYLOAD,2022-11-09 15:32:41,15.08835079,0.0002117,53.2141,143.1444,62.0744,298.0462,6.3049e-05,7.15e-06,0.0,0 STARLINK-4281,1 53017U 22076AH  22313.64769682  .00000715  00000-0  63049-4 0  9991,2 53017  53.2141 143.1444 0002117  62.0744 298.0462 15.08835079 19871,6917.895,95.438,541.225,538.2959999999998,0.0
53017.0,STARLINK-4281,PAYLOAD,2022-11-09 20:18:51,15.08828277,0.0001582,53.2191,142.2559,45.2399,314.8721,-1.688e-05,-5.57e-06,0.0,0 STARLINK-4281,1 53017U 22076AH  22313.84642369 -.00000557  00000-0 -16880-4 0  9992,2 53017  53.2191 142.2559 0001582  45.2399 314.8721 15.08828277 19447,6917.916,95.438,540.876,538.687,0.0
53017.0,STARLINK-4281,PAYLOAD,2022-11-10 01:05:00,15.08828128,0.0001761,53.2165,141.3609,71.9891,288.1293,-1.9316e-05,-5.95e-06,0.0,0 STARLINK-4281,1 53017U 22076AH  22314.04514412 -.00000595  00000-0 -19316-4 0  9991,2 53017  53.2165 141.3609 0001761  71.9891 288.1293 15.08828128 19932,6917.917,95.438,541.0,538.563,0.0
53017.0,STARLINK-4281,PAYLOAD,2022-11-10 12:12:42,15.08831728,0.0001686999999999,53.2176,139.2789,62.4572,297.6592,-7.9011e-05,-1.545e-05,0.0,0 STARLINK-4281,1 53017U 22076AH  22314.50882542 -.00001545  00000-0 -79011-4 0  9998,2 53017  53.2176 139.2789 0001687  62.4572 297.6592 15.08831728 19541,6917.906,95.438,540.938,538.604,0.0
53017.0,STARLINK-4281,PAYLOAD,2022-11-10 18:34:14,15.08840446,0.000172,53.2168,138.0902,59.8949,300.2213,-0.00010041,-1.886e-05,0.0,0 STARLINK-4281,1 53017U 22076AH  22314.77378089 -.00001886  00000-0 -10041-3 0  9998,2 53017  53.2168 138.0902 0001720  59.8949 300.2213 15.08840446 20047,6917.879,95.438,540.934,538.554,0.0
53017.0,STARLINK-4281,PAYLOAD,2022-11-10 20:09:37,15.08835165,0.0001647,53.2171,137.7927,47.1817,312.9314,1.3056e-06,-2.67e-06,0.0,0 STARLINK-4281,1 53017U 22076AH  22314.84002166 -.00000267  00000-0  13056-5 0  9998,2 53017  53.2171 137.7927 0001647  47.1817 312.9314 15.08835165 19598,6917.895,95.438,540.9,538.621,0.0
53017.0,STARLINK-4281,PAYLOAD,2022-11-11 00:55:46,15.08878414,0.0001467,53.2167,136.9003,54.5916,305.5213,-0.00055785,-9.165e-05,0.0,0 STARLINK-4281,1 53017U 22076AH  22315.03873535 -.00009165  00000-0 -55785-3 0  9996,2 53017  53.2167 136.9003 0001467  54.5916 305.5213 15.08878414 20087,6917.763000000001,95.435,540.643,538.613,0.0
53017.0,STARLINK-4281,PAYLOAD,2022-11-11 05:41:55,15.08911621,0.0001789,53.217,136.0081,46.6469,313.4672,-0.00096997,-0.00015723,0.0,0 STARLINK-4281,1 53017U 22076AH  22315.23744548 -.00015723  00000-0 -96997-3 0  9996,2 53017  53.2170 136.0081 0001789  46.6469 313.4672 15.08911621 20119,6917.661,95.433,540.764,538.289,0.0
53017.0,STARLINK-4281,PAYLOAD,2022-11-11 18:25:01,15.08833924,0.0001696,53.2168,133.6294,58.2436,301.8721,0.00012259,1.663e-05,0.0,0 STARLINK-4281,1 53017U 22076AH  22315.76737907  .00001663  00000-0  12259-3 0  9990,2 53017  53.2168 133.6294 0001696  58.2436 301.8721 15.08833924 20198,6917.899,95.438,540.937,538.591,0.0
53017.0,STARLINK-4281,PAYLOAD,2022-11-12 05:32:43,15.08839907,0.0001756,53.2167,131.5481,58.3035,301.8128,0.00013926,1.929e-05,0.0,0 STARLINK-4281,1 53017U 22076AH  22316.23105607  .00001929  00000-0  13926-3 0  9996,2 53017  53.2167 131.5481 0001756  58.3035 301.8128 15.08839907 19809,6917.880999999999,95.438,540.96,538.531,0.0
53017.0,STARLINK-4281,PAYLOAD,2022-11-12 21:26:35,15.08834037,0.0001720999999999,53.2171,128.5744,58.1136,302.0023,1.8745e-05,1e-07,0.0,0 STARLINK-4281,1 53017U 22076AH  22316.89346457  .00000010  00000-0  18745-4 0  9993,2 53017  53.2171 128.5744 0001721  58.1136 302.0023 15.08834037 19901,6917.899,95.438,540.9540000000002,538.573,0.0
53017.0,STARLINK-4281,PAYLOAD,2022-11-13 11:45:03,15.08839624,0.0001720999999999,53.2172,125.898,58.1671,301.9488,4.3673e-05,4.07e-06,0.0,0 STARLINK-4281,1 53017U 22076AH  22317.48962091  .00000407  00000-0  43673-4 0  9995,2 53017  53.2172 125.8980 0001721  58.1671 301.9488 15.08839624 19997,6917.882,95.438,540.937,538.556,0.0
53017.0,STARLINK-4281,PAYLOAD,2022-11-13 18:06:35,15.08840697,0.0001715,53.2173,124.7089,56.8684,303.2473,9.0827e-06,-1.44e-06,0.0,0 STARLINK-4281,1 53017U 22076AH  22317.75458111 -.00000144  00000-0  90827-5 0  9991,2 53017  53.2173 124.7089 0001715  56.8684 303.2473 15.08840697 20496,6917.878000000002,95.438,540.93,538.557,0.0
53017.0,STARLINK-4281,PAYLOAD,2022-11-14 03:38:55,15.08831886,0.0001698,53.2168,122.9241,58.7567,301.3591,-7.0782e-05,-1.414e-05,0.0,0 STARLINK-4281,1 53017U 22076AH  22318.15203031 -.00001414  00000-0 -70782-4 0  9994,2 53017  53.2168 122.9241 0001698  58.7567 301.3591 15.08831886 20558,6917.905,95.438,540.945,538.596,0.0
